O3B FM10                
1 40348U 14083A   26088.40299652 -.00000029  00000+0  00000+0 0  9996
2 40348   0.0446 335.3536 0002713  29.5150 355.1295  5.00115087205899
O3B FM11                
1 40349U 14083B   26094.01263456 -.00000026  00000+0  00000+0 0  9991
2 40349   0.0579   0.0324 0003009   0.3108 359.6553  5.00115635206208
O3B FM12                
1 40350U 14083C   26094.03970805 -.00000026  00000+0  00000+0 0  9998
2 40350   0.0571 359.5916 0002587   9.4271 350.9842  5.00116028206215
O3B FM9                 
1 40351U 14083D   26093.26697712 -.00000026  00000+0  00000+0 0  9996
2 40351   0.0591   0.1634 0002706  11.5018 348.3391  5.00115977206324
ASTRA 2G                
1 40364U 14089A   26094.18864199  .00000149  00000+0  00000+0 0  9998
2 40364   0.0635   1.1624 0004864  43.3611 244.0802  1.00273368 41226
SES-9                   
1 41380U 16013A   26094.05495266 -.00000346  00000+0  00000+0 0  9997
2 41380   0.0184 252.4710 0002046 161.8006 266.1721  1.00271572 36690
SES-10                  
1 42432U 17017A   26094.23426670 -.00000273  00000+0  00000+0 0  9993
2 42432   0.0228  83.9684 0002643 308.8349 177.1823  1.00268817 33016
SES-15                  
1 42709U 17026A   26093.64002528  .00000058  00000+0  00000+0 0  9996
2 42709   0.0340 327.2328 0000758  49.7417 276.2283  1.00269959  6681
SES-11 (ECHOSTAR 105)   
1 42967U 17063A   26094.22672668 -.00000090  00000+0  00000+0 0  9993
2 42967   0.0501  50.8161 0002809 339.9139 138.4874  1.00272361 30980
SES-14                  
1 43175U 18012B   26094.22753240 -.00000279  00000+0  00000+0 0  9995
2 43175   0.0080 136.1382 0000864 247.4246 203.3942  1.00271289  6280
O3B FM15                
1 43231U 18024A   26092.13440900 -.00000027  00000+0  00000+0 0  9996
2 43231   0.0502   3.1354 0002633   6.1622 350.7046  5.00115731147223
O3B FM16                
1 43232U 18024B   26094.18567594 -.00000026  00000+0  00000+0 0  9992
2 43232   0.0471   6.4430 0002702   3.2473 350.3134  5.00115998147239
O3B FM14                
1 43233U 18024C   26094.02655501 -.00000026  00000+0  00000+0 0  9992
2 43233   0.0457   6.0672 0002850   8.0316 345.9074  5.00115723147241
O3B FM13                
1 43234U 18024D   26084.69755415 -.00000024  00000+0  00000+0 0  9998
2 43234   0.0470 335.8508 0003967 348.6026  35.5167  5.00115556146887
SES-12                  
1 43488U 18049A   26094.12376627 -.00000270  00000+0  00000+0 0  9992
2 43488   0.0420  45.9560 0001658 264.8490  21.1879  1.00271563 28673
O3B FM20                
1 44112U 19020A   26094.05258622 -.00000026  00000+0  00000+0 0  9992
2 44112   0.0529   0.8932 0002667   1.6559 357.4506  5.00115555127859
O3B FM19                
1 44113U 19020B   26094.07968578 -.00000026  00000+0  00000+0 0  9993
2 44113   0.0578 352.7829 0004018  14.9317 352.2900  5.00116074127734
