[{"OBJECT_NAME":"O3B FM10","OBJECT_ID":"2014-083A","EPOCH":"2026-03-29T09:40:18.899328","MEAN_MOTION":5.00115087,"ECCENTRICITY":0.0002713,"INCLINATION":0.0446,"RA_OF_ASC_NODE":335.3536,"ARG_OF_PERICENTER":29.515,"MEAN_ANOMALY":355.1295,"EPHEMERIS_TYPE":0,"CLASSIFICATION_TYPE":"U","NORAD_CAT_ID":40348,"ELEMENT_SET_NO":999,"REV_AT_EPOCH":20589,"BSTAR":0,"MEAN_MOTION_DOT":-2.9e-7,"MEAN_MOTION_DDOT":0},{"OBJECT_NAME":"O3B FM11","OBJECT_ID":"2014-083B","EPOCH":"2026-04-04T00:18:11.625984","MEAN_MOTION":5.00115635,"ECCENTRICITY":0.00030099,"INCLINATION":0.0579,"RA_OF_ASC_NODE":0.0324,"ARG_OF_PERICENTER":0.3108,"MEAN_ANOMALY":359.6553,"EPHEMERIS_TYPE":0,"CLASSIFICATION_TYPE":"U","NORAD_CAT_ID":40349,"ELEMENT_SET_NO":999,"REV_AT_EPOCH":20620,"BSTAR":0,"MEAN_MOTION_DOT":-2.6e-7,"MEAN_MOTION_DDOT":0},{"OBJECT_NAME":"O3B FM12","OBJECT_ID":"2014-083C","EPOCH":"2026-04-04T00:57:10.775520","MEAN_MOTION":5.00116028,"ECCENTRICITY":0.00025872,"INCLINATION":0.0571,"RA_OF_ASC_NODE":359.5916,"ARG_OF_PERICENTER":9.4271,"MEAN_ANOMALY":350.9842,"EPHEMERIS_TYPE":0,"CLASSIFICATION_TYPE":"U","NORAD_CAT_ID":40350,"ELEMENT_SET_NO":999,"REV_AT_EPOCH":20621,"BSTAR":0,"MEAN_MOTION_DOT":-2.6e-7,"MEAN_MOTION_DDOT":0},{"OBJECT_NAME":"O3B FM9","OBJECT_ID":"2014-083D","EPOCH":"2026-04-03T06:24:26.823168","MEAN_MOTION":5.00115977,"ECCENTRICITY":0.00027068,"INCLINATION":0.0591,"RA_OF_ASC_NODE":0.1634,"ARG_OF_PERICENTER":11.5018,"MEAN_ANOMALY":348.3391,"EPHEMERIS_TYPE":0,"CLASSIFICATION_TYPE":"U","NORAD_CAT_ID":40351,"ELEMENT_SET_NO":999,"REV_AT_EPOCH":20632,"BSTAR":0,"MEAN_MOTION_DOT":-2.6e-7,"MEAN_MOTION_DDOT":0},{"OBJECT_NAME":"ASTRA 2G","OBJECT_ID":"2014-089A","EPOCH":"2026-04-04T04:31:38.667936","MEAN_MOTION":1.00273368,"ECCENTRICITY":0.00048646,"INCLINATION":0.0635,"RA_OF_ASC_NODE":1.1624,"ARG_OF_PERICENTER":43.3611,"MEAN_ANOMALY":244.0802,"EPHEMERIS_TYPE":0,"CLASSIFICATION_TYPE":"U","NORAD_CAT_ID":40364,"ELEMENT_SET_NO":999,"REV_AT_EPOCH":4122,"BSTAR":0,"MEAN_MOTION_DOT":1.49e-6,"MEAN_MOTION_DDOT":0},{"OBJECT_NAME":"SES-9","OBJECT_ID":"2016-013A","EPOCH":"2026-04-04T01:19:07.909824","MEAN_MOTION":1.00271572,"ECCENTRICITY":0.00020465,"INCLINATION":0.0184,"RA_OF_ASC_NODE":252.471,"ARG_OF_PERICENTER":161.8006,"MEAN_ANOMALY":266.1721,"EPHEMERIS_TYPE":0,"CLASSIFICATION_TYPE":"U","NORAD_CAT_ID":41380,"ELEMENT_SET_NO":999,"REV_AT_EPOCH":3669,"BSTAR":0,"MEAN_MOTION_DOT":-3.46e-6,"MEAN_MOTION_DDOT":0},{"OBJECT_NAME":"SES-10","OBJECT_ID":"2017-017A","EPOCH":"2026-04-04T05:37:20.642880","MEAN_MOTION":1.00268817,"ECCENTRICITY":0.00026435,"INCLINATION":0.0228,"RA_OF_ASC_NODE":83.9684,"ARG_OF_PERICENTER":308.8349,"MEAN_ANOMALY":177.1823,"EPHEMERIS_TYPE":0,"CLASSIFICATION_TYPE":"U","NORAD_CAT_ID":42432,"ELEMENT_SET_NO":999,"REV_AT_EPOCH":3301,"BSTAR":0,"MEAN_MOTION_DOT":-2.73e-6,"MEAN_MOTION_DDOT":0},{"OBJECT_NAME":"SES-15","OBJECT_ID":"2017-026A","EPOCH":"2026-04-03T15:21:38.184192","MEAN_MOTION":1.00269959,"ECCENTRICITY":7.58e-5,"INCLINATION":0.034,"RA_OF_ASC_NODE":327.2328,"ARG_OF_PERICENTER":49.7417,"MEAN_ANOMALY":276.2283,"EPHEMERIS_TYPE":0,"CLASSIFICATION_TYPE":"U","NORAD_CAT_ID":42709,"ELEMENT_SET_NO":999,"REV_AT_EPOCH":668,"BSTAR":0,"MEAN_MOTION_DOT":5.8e-7,"MEAN_MOTION_DDOT":0},{"OBJECT_NAME":"SES-11 (ECHOSTAR 105)","OBJECT_ID":"2017-063A","EPOCH":"2026-04-04T05:26:29.185152","MEAN_MOTION":1.00272361,"ECCENTRICITY":0.00028096,"INCLINATION":0.0501,"RA_OF_ASC_NODE":50.8161,"ARG_OF_PERICENTER":339.9139,"MEAN_ANOMALY":138.4874,"EPHEMERIS_TYPE":0,"CLASSIFICATION_TYPE":"U","NORAD_CAT_ID":42967,"ELEMENT_SET_NO":999,"REV_AT_EPOCH":3098,"BSTAR":0,"MEAN_MOTION_DOT":-9.0e-7,"MEAN_MOTION_DDOT":0},{"OBJECT_NAME":"SES-14","OBJECT_ID":"2018-012B","EPOCH":"2026-04-04T05:27:38.799360","MEAN_MOTION":1.00271289,"ECCENTRICITY":8.646e-5,"INCLINATION":0.008,"RA_OF_ASC_NODE":136.1382,"ARG_OF_PERICENTER":247.4246,"MEAN_ANOMALY":203.3942,"EPHEMERIS_TYPE":0,"CLASSIFICATION_TYPE":"U","NORAD_CAT_ID":43175,"ELEMENT_SET_NO":999,"REV_AT_EPOCH":628,"BSTAR":0,"MEAN_MOTION_DOT":-2.79e-6,"MEAN_MOTION_DDOT":0},{"OBJECT_NAME":"O3B FM15","OBJECT_ID":"2018-024A","EPOCH":"2026-04-02T03:13:32.937600","MEAN_MOTION":5.00115731,"ECCENTRICITY":0.0002633,"INCLINATION":0.0502,"RA_OF_ASC_NODE":3.1354,"ARG_OF_PERICENTER":6.1622,"MEAN_ANOMALY":350.7046,"EPHEMERIS_TYPE":0,"CLASSIFICATION_TYPE":"U","NORAD_CAT_ID":43231,"ELEMENT_SET_NO":999,"REV_AT_EPOCH":14722,"BSTAR":0,"MEAN_MOTION_DOT":-2.7e-7,"MEAN_MOTION_DDOT":0},{"OBJECT_NAME":"O3B FM16","OBJECT_ID":"2018-024B","EPOCH":"2026-04-04T04:27:22.401216","MEAN_MOTION":5.00115998,"ECCENTRICITY":0.0002702,"INCLINATION":0.0471,"RA_OF_ASC_NODE":6.443,"ARG_OF_PERICENTER":3.2473,"MEAN_ANOMALY":350.3134,"EPHEMERIS_TYPE":0,"CLASSIFICATION_TYPE":"U","NORAD_CAT_ID":43232,"ELEMENT_SET_NO":999,"REV_AT_EPOCH":14723,"BSTAR":0,"MEAN_MOTION_DOT":-2.6e-7,"MEAN_MOTION_DDOT":0},{"OBJECT_NAME":"O3B FM14","OBJECT_ID":"2018-024C","EPOCH":"2026-04-04T00:38:14.352864","MEAN_MOTION":5.00115723,"ECCENTRICITY":0.000285,"INCLINATION":0.0457,"RA_OF_ASC_NODE":6.0672,"ARG_OF_PERICENTER":8.0316,"MEAN_ANOMALY":345.9074,"EPHEMERIS_TYPE":0,"CLASSIFICATION_TYPE":"U","NORAD_CAT_ID":43233,"ELEMENT_SET_NO":999,"REV_AT_EPOCH":14724,"BSTAR":0,"MEAN_MOTION_DOT":-2.6e-7,"MEAN_MOTION_DDOT":0},{"OBJECT_NAME":"O3B FM13","OBJECT_ID":"2018-024D","EPOCH":"2026-03-25T16:44:28.678560","MEAN_MOTION":5.00115556,"ECCENTRICITY":0.00039678,"INCLINATION":0.047,"RA_OF_ASC_NODE":335.8508,"ARG_OF_PERICENTER":348.6026,"MEAN_ANOMALY":35.5167,"EPHEMERIS_TYPE":0,"CLASSIFICATION_TYPE":"U","NORAD_CAT_ID":43234,"ELEMENT_SET_NO":999,"REV_AT_EPOCH":14688,"BSTAR":0,"MEAN_MOTION_DOT":-2.4e-7,"MEAN_MOTION_DDOT":0},{"OBJECT_NAME":"SES-12","OBJECT_ID":"2018-049A","EPOCH":"2026-04-04T02:58:13.405728","MEAN_MOTION":1.00271563,"ECCENTRICITY":0.00016582,"INCLINATION":0.042,"RA_OF_ASC_NODE":45.956,"ARG_OF_PERICENTER":264.849,"MEAN_ANOMALY":21.1879,"EPHEMERIS_TYPE":0,"CLASSIFICATION_TYPE":"U","NORAD_CAT_ID":43488,"ELEMENT_SET_NO":999,"REV_AT_EPOCH":2867,"BSTAR":0,"MEAN_MOTION_DOT":-2.7e-6,"MEAN_MOTION_DDOT":0},{"OBJECT_NAME":"O3B FM20","OBJECT_ID":"2019-020A","EPOCH":"2026-04-04T01:15:43.449408","MEAN_MOTION":5.00115555,"ECCENTRICITY":0.00026672,"INCLINATION":0.0529,"RA_OF_ASC_NODE":0.8932,"ARG_OF_PERICENTER":1.6559,"MEAN_ANOMALY":357.4506,"EPHEMERIS_TYPE":0,"CLASSIFICATION_TYPE":"U","NORAD_CAT_ID":44112,"ELEMENT_SET_NO":999,"REV_AT_EPOCH":12785,"BSTAR":0,"MEAN_MOTION_DOT":-2.6e-7,"MEAN_MOTION_DDOT":0},{"OBJECT_NAME":"O3B FM19","OBJECT_ID":"2019-020B","EPOCH":"2026-04-04T01:54:44.851392","MEAN_MOTION":5.00116074,"ECCENTRICITY":0.00040181,"INCLINATION":0.0578,"RA_OF_ASC_NODE":352.7829,"ARG_OF_PERICENTER":14.9317,"MEAN_ANOMALY":352.29,"EPHEMERIS_TYPE":0,"CLASSIFICATION_TYPE":"U","NORAD_CAT_ID":44113,"ELEMENT_SET_NO":999,"REV_AT_EPOCH":12773,"BSTAR":0,"MEAN_MOTION_DOT":-2.6e-7,"MEAN_MOTION_DDOT":0}]
